{
    "links": {
        "self": "http://www.neowsapp.com/rest/v1/neo/3840881?api_key=iIulBulltgU6a56xZRHN4H3l9WmuAYTsLGpBGhQ2"
    },
    "id": "3840881",
    "neo_reference_id": "3840881",
    "name": "(2019 GO5)",
    "designation": "2019 GO5",
    "nasa_jpl_url": "http://ssd.jpl.nasa.gov/sbdb.cgi?sstr=3840881",
    "absolute_magnitude_h": 23.3,
    "estimated_diameter": {
        "kilometers": {
            "estimated_diameter_min": 0.058150704,
            "estimated_diameter_max": 0.130028927
        },
        "meters": {
            "estimated_diameter_min": 58.1507039646,
            "estimated_diameter_max": 130.0289270043
        },
        "miles": {
            "estimated_diameter_min": 0.0361331611,
            "estimated_diameter_max": 0.0807962044
        },
        "feet": {
            "estimated_diameter_min": 190.7831555951,
            "estimated_diameter_max": 426.6041048727
        }
    },
    "is_potentially_hazardous_asteroid": false,
    "close_approach_data": [
        {
            "close_approach_date": "1972-04-11",
            "close_approach_date_full": "1972-Apr-11 23:39",
            "epoch_date_close_approach": 71883540000,
            "relative_velocity": {
                "kilometers_per_second": "10.3808205585",
                "kilometers_per_hour": "37370.9540106713",
                "miles_per_hour": "23220.8575073529"
            },
            "miss_distance": {
                "astronomical": "0.3059520556",
                "lunar": "119.0153496284",
                "kilometers": "45769775.839881572",
                "miles": "28440019.9256548136"
            },
            "orbiting_body": "Earth"
        },
        {
            "close_approach_date": "2014-03-23",
            "close_approach_date_full": "2014-Mar-23 11:17",
            "epoch_date_close_approach": 1395573420000,
            "relative_velocity": {
                "kilometers_per_second": "6.4562317471",
                "kilometers_per_hour": "23242.4342895367",
                "miles_per_hour": "14441.9447950735"
            },
            "miss_distance": {
                "astronomical": "0.4744028033",
                "lunar": "184.5426904837",
                "kilometers": "70969648.895708971",
                "miles": "44098494.9494109598"
            },
            "orbiting_body": "Earth"
        },
        {
            "close_approach_date": "2019-04-16",
            "close_approach_date_full": "2019-Apr-16 23:00",
            "epoch_date_close_approach": 1555455600000,
            "relative_velocity": {
                "kilometers_per_second": "7.0261333749",
                "kilometers_per_hour": "25294.0801495369",
                "miles_per_hour": "15716.7577462497"
            },
            "miss_distance": {
                "astronomical": "0.2320628269",
                "lunar": "90.2724396641",
                "kilometers": "34716104.610418703",
                "miles": "21571587.1171279814"
            },
            "orbiting_body": "Earth"
        },
        {
            "close_approach_date": "2024-04-14",
            "close_approach_date_full": "2024-Apr-14 11:34",
            "epoch_date_close_approach": 1713094440000,
            "relative_velocity": {
                "kilometers_per_second": "8.0081820658",
                "kilometers_per_hour": "28829.455436819",
                "miles_per_hour": "17913.5024629501"
            },
            "miss_distance": {
                "astronomical": "0.1837618503",
                "lunar": "71.4833597667",
                "kilometers": "27490381.392138861",
                "miles": "17081730.9066878418"
            },
            "orbiting_body": "Earth"
        },
        {
            "close_approach_date": "2029-04-10",
            "close_approach_date_full": "2029-Apr-10 00:56",
            "epoch_date_close_approach": 1870476960000,
            "relative_velocity": {
                "kilometers_per_second": "12.9619364372",
                "kilometers_per_hour": "46662.9711739535",
                "miles_per_hour": "28994.5556163935"
            },
            "miss_distance": {
                "astronomical": "0.4272329108",
                "lunar": "166.1936023012",
                "kilometers": "63913133.449579996",
                "miles": "39713779.5731401048"
            },
            "orbiting_body": "Earth"
        }
    ],
    "orbital_data": {
        "orbit_id": "4",
        "orbit_determination_date": "2019-05-06 07:08:36",
        "first_observation_date": "2019-04-03",
        "last_observation_date": "2019-04-29",
        "data_arc_in_days": 26,
        "observations_used": 20,
        "orbit_uncertainty": "6",
        "minimum_orbit_intersection": ".154551",
        "jupiter_tisserand_invariant": "3.919",
        "epoch_osculation": "2459000.5",
        "eccentricity": ".3729596906772458",
        "semi_major_axis": "1.831233788024747",
        "inclination": "11.79151169794986",
        "ascending_node_longitude": "14.4927539881596",
        "orbital_period": "905.1365788983562",
        "perihelion_distance": "1.148257400885316",
        "perihelion_argument": "200.2177107113971",
        "aphelion_distance": "2.514210175164178",
        "perihelion_time": "2458608.919680113632",
        "mean_anomaly": "155.7432529471586",
        "mean_motion": ".3977300314590719",
        "equinox": "J2000",
        "orbit_class": {
            "orbit_class_type": "AMO",
            "orbit_class_description": "Near-Earth asteroid orbits similar to that of 1221 Amor",
            "orbit_class_range": "1.017 AU < q (perihelion) < 1.3 AU"
        }
    },
    "is_sentry_object": false
}